{
    "links": {
        "self": "http://www.neowsapp.com/rest/v1/neo/3843807?api_key=iIulBulltgU6a56xZRHN4H3l9WmuAYTsLGpBGhQ2"
    },
    "id": "3843807",
    "neo_reference_id": "3843807",
    "name": "(2019 RZ1)",
    "designation": "2019 RZ1",
    "nasa_jpl_url": "http://ssd.jpl.nasa.gov/sbdb.cgi?sstr=3843807",
    "absolute_magnitude_h": 23.6,
    "estimated_diameter": {
        "kilometers": {
            "estimated_diameter_min": 0.0506471459,
            "estimated_diameter_max": 0.1132504611
        },
        "meters": {
            "estimated_diameter_min": 50.6471458835,
            "estimated_diameter_max": 113.2504610618
        },
        "miles": {
            "estimated_diameter_min": 0.0314706677,
            "estimated_diameter_max": 0.0703705522
        },
        "feet": {
            "estimated_diameter_min": 166.1651821003,
            "estimated_diameter_max": 371.5566426699
        }
    },
    "is_potentially_hazardous_asteroid": false,
    "close_approach_data": [
        {
            "close_approach_date": "2017-09-03",
            "close_approach_date_full": "2017-Sep-03 23:49",
            "epoch_date_close_approach": 1504482540000,
            "relative_velocity": {
                "kilometers_per_second": "13.4138980444",
                "kilometers_per_hour": "48290.032959912",
                "miles_per_hour": "30005.5485355631"
            },
            "miss_distance": {
                "astronomical": "0.4286654087",
                "lunar": "166.7508439843",
                "kilometers": "64127432.084199469",
                "miles": "39846938.5700279122"
            },
            "orbiting_body": "Earth"
        },
        {
            "close_approach_date": "2019-09-03",
            "close_approach_date_full": "2019-Sep-03 15:05",
            "epoch_date_close_approach": 1567523100000,
            "relative_velocity": {
                "kilometers_per_second": "12.6088246879",
                "kilometers_per_hour": "45391.7688764339",
                "miles_per_hour": "28204.6799443597"
            },
            "miss_distance": {
                "astronomical": "0.1834395002",
                "lunar": "71.3579655778",
                "kilometers": "27442158.503784574",
                "miles": "17051766.5933281612"
            },
            "orbiting_body": "Earth"
        },
        {
            "close_approach_date": "2021-09-07",
            "close_approach_date_full": "2021-Sep-07 06:49",
            "epoch_date_close_approach": 1630997340000,
            "relative_velocity": {
                "kilometers_per_second": "14.9151487469",
                "kilometers_per_hour": "53694.5354888526",
                "miles_per_hour": "33363.6962319484"
            },
            "miss_distance": {
                "astronomical": "0.2546486167",
                "lunar": "99.0583118963",
                "kilometers": "38094890.656766429",
                "miles": "23671067.4121335602"
            },
            "orbiting_body": "Earth"
        }
    ],
    "orbital_data": {
        "orbit_id": "3",
        "orbit_determination_date": "2019-10-08 05:58:10",
        "first_observation_date": "2019-09-04",
        "last_observation_date": "2019-09-26",
        "data_arc_in_days": 22,
        "observations_used": 29,
        "orbit_uncertainty": "7",
        "minimum_orbit_intersection": ".153897",
        "jupiter_tisserand_invariant": "4.199",
        "epoch_osculation": "2459000.5",
        "eccentricity": ".2939784830690481",
        "semi_major_axis": "1.613097620781737",
        "inclination": "23.82888778777274",
        "ascending_node_longitude": "346.2279651746604",
        "orbital_period": "748.3235327602752",
        "perihelion_distance": "1.138881629182031",
        "perihelion_argument": "333.6004700357495",
        "aphelion_distance": "2.087313612381442",
        "perihelion_time": "2458701.796746676742",
        "mean_anomaly": "143.6987699688191",
        "mean_motion": ".4810753427359149",
        "equinox": "J2000",
        "orbit_class": {
            "orbit_class_type": "AMO",
            "orbit_class_description": "Near-Earth asteroid orbits similar to that of 1221 Amor",
            "orbit_class_range": "1.017 AU < q (perihelion) < 1.3 AU"
        }
    },
    "is_sentry_object": false
}